STARLINK-11573 [DTC]    
1 62989U 25031J   25129.14696780  .00001609  00000+0  16035-4 0  9999
2 62989  43.0004  37.3329 0001489 276.2195  83.8503 15.70835042 14814
STARLINK-11572 [DTC]    
1 62990U 25031K   25129.12131412  .00002720  00000+0  24684-4 0  9999
2 62990  43.0012  37.1263 0001881 276.0499  84.0155 15.70846392 14840
STARLINK-11583 [DTC]    
1 62991U 25031L   25129.08869343 -.00000068  00000+0  29727-5 0  9994
2 62991  43.0015  37.7569 0001948 259.8543 100.2105 15.70830140 14842
STARLINK-11570 [DTC]    
1 62992U 25031M   25129.09400419  .00000529  00000+0  76183-5 0  9990
2 62992  43.0010  37.7994 0001452 275.0602  85.0100 15.70831302 14820
STARLINK-11576 [DTC]    
1 62993U 25031N   25128.95090990  .00000344  00000+0  61769-5 0  9993
2 62993  43.0009  38.4354 0001342 284.3500  75.7218 15.70833019 14806
STARLINK-32899          
1 62994U 25031P   25129.13838886  .00000143  00000+0  14714-4 0  9993
2 62994  43.0073  63.6595 0001192 270.7875  89.2840 15.27571880 14518
STARLINK-32819          
1 62995U 25031Q   25129.17037237  .00003340  00000+0  13083-3 0  9998
2 62995  42.9953  63.0398 0000320 283.3243  76.7572 15.27576736 14529
STARLINK-32703          
1 62996U 25031R   25129.19864130  .00008234  00000+0  30880-3 0  9992
2 62996  43.0064  63.2542 0001431 266.6479  93.4209 15.27538926 14529
STARLINK-32881          
1 62997U 25031S   25129.22546607  .00000235  00000+0  18065-4 0  9998
2 62997  43.0013  62.5836 0001185 263.4686  96.6030 15.27579829 14538
STARLINK-32898          
1 62998U 25031T   25129.19220178  .00000098  00000+0  13090-4 0  9997
2 62998  43.0040  63.2089 0001672 277.9252  82.1409 15.27577534 14527
STARLINK-32658          
1 62999U 25031U   25129.22932521 -.00000648  00000+0 -14035-4 0  9997
2 62999  42.9994  62.6172 0001074 264.0798  95.9931 15.27576624 14530
STARLINK-32673          
1 63000U 25031V   25129.18192510  .00000139  00000+0  14575-4 0  9994
2 63000  43.0038  63.1264 0000863 275.7284  84.3469 15.27577728 14520
STARLINK-32437          
1 63001U 25031W   25129.14224186 -.00000199  00000+0  23162-5 0  9996
2 63001  43.0059  63.6897 0001465 268.2287  91.8397 15.27575708 14518
STARLINK-11448 [DTC]    
1 63005U 25032A   25129.91667824 -.00036087  00000+0 -27881-3 0  9992
2 63005  42.9999 226.0350 0001706 270.5014  35.6632 15.70851213  5866
STARLINK-11553 [DTC]    
1 63006U 25032B   25129.27987650 -.00000230  00000+0  17112-5 0  9992
2 63006  43.0008 230.6190 0002083 277.5511  82.5120 15.70830865 14336
STARLINK-11526 [DTC]    
1 63007U 25032C   25129.28505688 -.00000743  00000+0 -22953-5 0  9990
2 63007  43.0000 229.7656 0001822 284.6600  75.4065 15.70829548 14349
STARLINK-11405 [DTC]    
1 63008U 25032D   25129.65166394  .00001687  00000+0  16651-4 0  9992
2 63008  43.0027 228.2420 0001931 264.7688  95.2960 15.70832051 14244
STARLINK-11586 [DTC]    
1 63009U 25032E   25129.31691151  .00000075  00000+0  40815-5 0  9990
2 63009  43.0005 230.0205 0001752 269.4329  90.6338 15.70831235 14340
STARLINK-11574 [DTC]    
1 63010U 25032F   25129.32753050  .00001288  00000+0  13533-4 0  9993
2 63010  42.9977 230.1034 0001161 198.4784 161.6042 15.70825622 14343
STARLINK-11580 [DTC]    
1 63011U 25032G   25129.55531620 -.00000126  00000+0  25110-5 0  9992
2 63011  42.9983 228.3585 0001548 267.9522  92.1169 15.70830888 14238
STARLINK-11449 [DTC]    
1 63012U 25032H   25129.31160350 -.00000104  00000+0  26882-5 0  9998
2 63012  43.0019 229.9792 0001657 281.9825  78.0857 15.70830152 14344
STARLINK-11577 [DTC]    
1 63013U 25032J   25129.64014063 -.00000464  00000+0 -12171-6 0  9991
2 63013  43.0010 228.1477 0001528 274.0339  86.0354 15.70828142 14399
STARLINK-11578 [DTC]    
1 63014U 25032K   25129.59248507  .00215906  00000+0  16402-2 0  9992
2 63014  43.0020 228.6596 0003901 293.5639  66.4819 15.70872466 14334
STARLINK-11541 [DTC]    
1 63015U 25032L   25129.74075612 -.00000182  00000+0  20748-5 0  9995
2 63015  43.0005 227.1653 0001431 265.8339  94.2365 15.70828855 14429
STARLINK-11545 [DTC]    
1 63016U 25032M   25129.30629266 -.00000637  00000+0 -14734-5 0  9992
2 63016  42.9969 229.9292 0001653 272.5222  87.5457 15.70828073 14359
STARLINK-11400 [DTC]    
1 63017U 25032N   25129.33284091  .00000883  00000+0  10380-4 0  9992
2 63017  42.9995 230.1486 0001189 247.2084 112.8658 15.70826052 14346
STARLINK-32870          
1 63018U 25032P   25129.41046430 -.00000256  00000+0  22560-6 0  9995
2 63018  43.0002 254.5215 0000962 224.4648 135.6126 15.27589574 14080
STARLINK-32872          
1 63019U 25032Q   25129.82463006  .00009195  00000+0  34366-3 0  9997
2 63019  42.9950 252.4815 0000364  63.1278 296.9611 15.27539844 14149
STARLINK-32677          
1 63020U 25032R   25129.34893524  .00001637  00000+0  68984-4 0  9995
2 63020  43.0012 254.9274 0001074 238.9522 121.1225 15.27579731 14061
STARLINK-32929          
1 63021U 25032S   25129.41818428  .00001027  00000+0  46856-4 0  9991
2 63021  43.0010 254.5883 0001780 288.1371  71.9287 15.27576133 14080
STARLINK-32944          
1 63022U 25032T   25129.82848040 -.00000221  00000+0  15275-5 0  9998
2 63022  42.9982 252.5083 0002934 276.2505  83.8013 15.27574877 14145
STARLINK-32943          
1 63023U 25032U   25129.39247611  .00001335  00000+0  58008-4 0  9994
2 63023  42.9962 254.3918 0000657 222.3014 137.7787 15.27578987 14084
STARLINK-32803          
1 63024U 25032V   25129.38862350  .00000151  00000+0  15015-4 0  9993
2 63024  43.0002 254.3578 0001214 202.2892 157.7907 15.27575999 13923
STARLINK-32926          
1 63025U 25032W   25129.38219073 -.00005910  00000+0 -20520-3 0  9998
2 63025  42.9975 254.3113 0000999 297.8503  62.2247 15.27615146 14088
STARLINK-32798          
1 63029U 25034A   25129.54884534 -.00001712  00000+0 -45721-4 0  9999
2 63029  53.1603 243.4680 0001079  45.1735 314.9354 15.30180817 12342
STARLINK-32779          
1 63030U 25034B   25129.60582221 -.00003512  00000+0 -10647-3 0  9994
2 63030  53.1601 243.8174 0001508 106.9601 253.1565 15.30209020 12345
STARLINK-32716          
1 63031U 25034C   25129.56980151 -.00005178  00000+0 -11946-3 0  9997
2 63031  53.1609 241.4617 0001201 100.5776 259.5364 15.39640625 12372
STARLINK-32776          
1 63032U 25034D   25129.82017911  .00000919  00000+0  32951-4 0  9998
2 63032  53.1607 240.1824 0001194  88.2221 271.8921 15.39615435 12417
STARLINK-32772          
1 63033U 25034E   25129.54204745  .00001299  00000+0  42469-4 0  9998
2 63033  53.1596 242.0069 0001264  84.4425 275.6724 15.39612901 13586
STARLINK-32830          
1 63034U 25034F   25129.65329560 -.00000102  00000+0  74153-5 0  9993
2 63034  53.1609 241.2788 0000892  63.9715 296.1382 15.39609127 12382
STARLINK-32801          
1 63035U 25034G   25129.59769633 -.00004078  00000+0 -92140-4 0  9998
2 63035  53.1599 241.6374 0001253  92.2406 267.8743 15.39584323 12375
STARLINK-32818          
1 63036U 25034H   25129.74673748  .00001167  00000+0  39152-4 0  9995
2 63036  53.1599 241.1486 0001163 119.6835 240.4286 15.39618329 12390
STARLINK-32810          
1 63037U 25034J   25129.60231275  .00000162  00000+0  14037-4 0  9995
2 63037  53.1601 241.6689 0001149  72.1472 287.9658 15.39613862 12373
STARLINK-32812          
1 63038U 25034K   25129.58407363 -.00000317  00000+0  20599-5 0  9990
2 63038  53.1607 241.5552 0000865  56.0949 304.0138 15.39611191 12379
STARLINK-32811          
1 63039U 25034L   25129.52811347  .00000550  00000+0  23746-4 0  9990
2 63039  53.1599 241.9103 0001269  56.0441 304.0684 15.39607802 12361
STARLINK-32832          
1 63040U 25034M   25129.58374881 -.00003542  00000+0 -78676-4 0  9993
2 63040  53.1612 241.5535 0001198  90.4582 269.6560 15.39598992 12372
STARLINK-32820          
1 63041U 25034N   25129.57445832 -.00000964  00000+0 -14131-4 0  9999
2 63041  53.1608 241.4883 0001107  71.5328 288.5797 15.39602959 12372
STARLINK-32795          
1 63042U 25034P   25129.63008248 -.00001656  00000+0 -31416-4 0  9997
2 63042  53.1613 241.1278 0001416  74.5802 285.5359 15.39614786 12380
STARLINK-32827          
1 63043U 25034Q   25129.60371341 -.00000303  00000+0  18872-5 0  9991
2 63043  53.1610 243.8062 0001218 100.7535 259.3603 15.30193812 12343
STARLINK-32735          
1 63044U 25034R   25129.60782825 -.00001260  00000+0 -30441-4 0  9994
2 63044  53.1596 243.1219 0001093  75.9774 284.1348 15.30184671 12359
STARLINK-32828          
1 63045U 25034S   25129.63315052 -.00000708  00000+0 -11792-4 0  9996
2 63045  53.1604 243.2693 0001234 119.1428 240.9697 15.30183411 12359
STARLINK-32738          
1 63046U 25034T   25129.59799926 -.00004349  00000+0 -98736-4 0  9996
2 63046  53.1608 241.6389 0001281 100.0244 260.0905 15.39637833 12373
STARLINK-32590          
1 63047U 25034U   25129.91667824 -.00031454  00000+0 -77891-3 0  9999
2 63047  53.1581 240.2416 0001221  89.3592 186.5311 15.39647429  5804
STARLINK-32790          
1 63048U 25034V   25129.57943106 -.00000180  00000+0  54821-5 0  9993
2 63048  53.1615 241.5219 0001231  76.5459 283.5683 15.39612408 12378
STARLINK-32829          
1 63049U 25034W   25129.60055035 -.00001069  00000+0 -23992-4 0  9995
2 63049  53.1611 243.7912 0001131  75.8968 284.2158 15.30189566 12342
STARLINK-32816          
1 63050U 25034X   25129.57943749  .00000168  00000+0  17791-4 0  9998
2 63050  53.1609 243.6475 0001389  80.3850 279.7308 15.30191845 12349
STARLINK-32835          
1 63051U 25034Y   25129.58682908  .00000933  00000+0  43647-4 0  9996
2 63051  53.1617 243.6968 0001284  89.5324 270.5824 15.30188654 12343
STARLINK-11550 [DTC]    
1 63052U 25035A   25129.19236482 -.00000004  00000+0  34639-5 0  9999
2 63052  43.0008  50.5528 0001034 269.5539  90.5210 15.70831266 13331
STARLINK-11563 [DTC]    
1 63053U 25035B   25128.94334342 -.00000057  00000+0  30501-5 0  9998
2 63053  43.0029  52.1274 0001448 271.6640  88.4062 15.70827661 13185
